OBJECT_NAME,OBJECT_ID,EPOCH,MEAN_MOTION,ECCENTRICITY,INCLINATION,RA_OF_ASC_NODE,ARG_OF_PERICENTER,MEAN_ANOMALY,EPHEMERIS_TYPE,CLASSIFICATION_TYPE,NORAD_CAT_ID,ELEMENT_SET_NO,REV_AT_EPOCH,BSTAR,MEAN_MOTION_DOT,MEAN_MOTION_DDOT
CARTOSAT-2E,2017-036C,2026-07-15T04:02:21.310944,15.19256188,.0003251,97.4265,255.5073,189.5396,170.5777,0,U,42767,999,50239,.14952E-3,.3084E-4,0
D-SAT,2017-036AF,2026-07-14T22:18:33.210720,15.17394083,.0082898,97.5572,174.7762,66.2169,294.7729,0,U,42794,999,49506,.21069E-3,.4528E-4,0
IRIDIUM 113,2017-039A,2026-07-14T20:50:55.138272,14.34217283,.0002135,86.3991,310.6092,91.7034,268.4406,0,U,42803,999,47515,-.36881E-6,.19E-6,0
NORSAT 2,2017-042D,2026-07-15T00:45:31.455648,15.22425337,.0008228,97.4049,9.0422,318.5633,41.4978,0,U,42828,999,49197,.24902E-3,.5692E-4,0
TECHNOSAT,2017-042E,2026-07-15T00:57:45.040032,15.05110623,.0017444,97.4316,352.6447,4.0246,356.1118,0,U,42829,999,49089,.12629E-3,.1743E-4,0
FLYING LAPTOP,2017-042G,2026-07-15T04:19:17.959872,15.01312154,.0019704,97.4801,350.6592,32.5803,327.6633,0,U,42831,999,49065,.14435E-3,.1807E-4,0
WNISAT 1R,2017-042L,2026-07-15T00:12:56.591712,15.01858278,.001089,97.4821,351.1375,65.3768,294.8590,0,U,42835,999,49068,.38769E-4,.449E-5,0
LEMUR-2-GREENBERG,2017-042N,2026-07-15T01:07:33.602016,15.32149662,.0007195,97.3827,16.5610,260.7721,99.2707,0,U,42837,999,49265,.32403E-3,.999E-4,0
LEMUR-2-FURIAUS,2017-042R,2026-07-15T01:26:02.139936,15.31128008,.0006026,97.3772,14.4663,330.2641,29.8256,0,U,42840,999,49247,.33189E-3,.9911E-4,0
CORVUS BC2,2017-042X,2026-07-14T23:03:48.557952,15.06455929,.0013477,97.4091,356.2377,23.8771,336.3079,0,U,42846,999,49124,.86403E-4,.1217E-4,0
CORVUS BC1,2017-042Y,2026-07-14T21:16:00.399936,15.06618518,.0011698,97.4120,356.9976,1.3518,358.7739,0,U,42847,999,49126,.87249E-4,.1235E-4,0
VRSS-2,2017-060A,2026-07-15T05:19:20.888256,14.81238211,.0017472,97.6500,232.6846,13.6424,346.5258,0,U,42954,999,47260,.50816E-4,.347E-5,0
MOHAMMED VI-A,2017-070A,2026-07-15T04:31:10.632864,14.77102886,.0001221,97.9556,268.1324,96.2936,263.8413,0,U,43005,999,46811,.47176E-4,.283E-5,0
FENGYUN 3D,2017-072A,2026-07-15T04:42:37.713312,14.19745800,.0001539,99.0137,171.1272,14.2282,345.8936,0,U,43010,999,44896,.21299E-3,.405E-5,0
NOAA 20 (JPSS-1),2017-073A,2026-07-15T03:00:30.388608,14.19516423,.0001386,98.7772,135.3404,124.8227,235.3079,0,U,43013,999,44843,.23989E-4,.6E-7,0
MAKERSAT 0,2017-073D,2026-07-14T14:28:35.203872,15.32992920,.0105407,97.4584,78.3470,174.3522,185.8937,0,U,43016,999,47066,.3073E-3,.11617E-3,0
RADFXSAT (FOX-1B),2017-073E,2026-07-15T02:51:26.227584,15.13059975,.0148264,97.4665,62.7648,231.7533,127.0280,0,U,43017,999,46961,.1911E-3,.4352E-4,0
JILIN-1 04,2017-074A,2026-07-15T04:05:18.696192,15.43130795,.0005238,97.4882,306.5450,100.2894,259.8944,0,U,43022,999,47858,.19223E-3,.8422E-4,0
JILIN-1 05,2017-074B,2026-07-15T04:03:18.539712,15.34284896,.0006447,97.4885,302.7114,124.6472,235.5379,0,U,43023,999,47829,.14312E-3,.467E-4,0
JILIN-1 06,2017-074C,2026-07-15T05:02:32.190720,15.33995965,.0008088,97.4811,299.7251,134.0779,226.1130,0,U,43024,999,47813,.10708E-3,.3443E-4,0
IRIDIUM 116,2017-083C,2026-07-14T20:14:23.078688,14.34217711,.00024431,86.3985,310.4404,98.6620,261.4852,0,U,43072,999,44813,.38542333E-4,.128E-5,0
IRIDIUM 130,2017-083D,2026-07-15T05:31:31.408032,14.34217962,.0002258,86.3992,310.5567,100.4656,259.6794,0,U,43073,999,44813,.41425E-4,.136E-5,0
LKW-2,2017-084A,2026-07-15T05:10:06.726432,15.26688995,.0003669,97.1175,234.7050,119.4384,240.7222,0,U,43080,999,47596,.9425E-4,.2406E-4,0
SUPERVIEW-1 03,2018-002A,2026-07-15T04:12:51.623136,15.40214083,.004694,97.3135,280.9869,81.1942,279.4616,0,U,43099,999,47267,.28725E-3,.11916E-3,0
CARTOSAT-2F,2018-004A,2026-07-15T04:49:13.516896,15.19271029,.0002775,97.4776,255.5599,135.4284,224.7174,0,U,43111,999,47158,.11884E-3,.2437E-4,0
LKW-3,2018-006A,2026-07-15T04:56:36.157920,15.35745690,.0002978,97.6630,357.8882,179.1491,180.9758,0,U,43146,999,47301,.12915E-3,.4404E-4,0
ASNARO-2,2018-007A,2026-07-15T04:27:47.560032,15.22425213,.0001886,97.3970,202.6759,93.5162,266.6290,0,U,43152,999,47167,.20843E-3,.4749E-4,0
JILIN-1 07,2018-008E,2026-07-15T04:33:59.143104,15.35164252,.000674,97.1763,215.3792,328.1661,31.9175,0,U,43159,999,46929,.14689E-3,.4938E-4,0
JILIN-1 08,2018-008F,2026-07-15T05:02:50.118720,15.34009973,.0005306,97.1801,214.6834,352.5568,7.5596,0,U,43160,999,46924,.1032E-3,.332E-4,0
S-NET D,2018-014G,2026-07-14T16:58:49.867968,15.16915277,.00062636,97.5336,100.3276,287.1743,72.8804,0,U,43186,999,46293,.13143941E-3,.2523E-4,0
