1 42767U 17036C   26196.16830221  .00003084  00000-0  14952-3 0  9999
2 42767  97.4265 255.5073 0003251 189.5396 170.5777 15.19256188502399
1 42794U 17036AF  26195.92955105  .00004528  00000-0  21069-3 0  9992
2 42794  97.5572 174.7762 0082898  66.2169 294.7729 15.17394083495067
1 42803U 17039A   26195.86869373  .00000019  00000-0 -36881-6 0  9993
2 42803  86.3991 310.6092 0002135  91.7034 268.4406 14.34217283475158
1 42828U 17042D   26196.03161407  .00005692  00000-0  24902-3 0  9996
2 42828  97.4049   9.0422 0008228 318.5633  41.4978 15.22425337491972
1 42829U 17042E   26196.04010463  .00001743  00000-0  12629-3 0  9999
2 42829  97.4316 352.6447 0017444   4.0246 356.1118 15.05110623490893
1 42831U 17042G   26196.18006898  .00001807  00000-0  14435-3 0  9992
2 42831  97.4801 350.6592 0019704  32.5803 327.6633 15.01312154490658
1 42835U 17042L   26196.00898833  .00000449  00000-0  38769-4 0  9993
2 42835  97.4821 351.1375 0010890  65.3768 294.8590 15.01858278490682
1 42837U 17042N   26196.04691669  .00009990  00000-0  32403-3 0  9995
2 42837  97.3827  16.5610 0007195 260.7721  99.2707 15.32149662492657
1 42840U 17042R   26196.05974699  .00009911  00000-0  33189-3 0  9992
2 42840  97.3772  14.4663 0006026 330.2641  29.8256 15.31128008492479
1 42846U 17042X   26195.96097868  .00001217  00000-0  86403-4 0  9990
2 42846  97.4091 356.2377 0013477  23.8771 336.3079 15.06455929491246
1 42847U 17042Y   26195.88611574  .00001235  00000-0  87249-4 0  9997
2 42847  97.4120 356.9976 0011698   1.3518 358.7739 15.06618518491263
1 42954U 17060A   26196.22176954  .00000347  00000-0  50816-4 0  9996
2 42954  97.6500 232.6846 0017472  13.6424 346.5258 14.81238211472608
1 43005U 17070A   26196.18831751  .00000283  00000-0  47176-4 0  9997
2 43005  97.9556 268.1324 0001221  96.2936 263.8413 14.77102886468113
1 43010U 17072A   26196.19626983  .00000405  00000-0  21299-3 0  9998
2 43010  99.0137 171.1272 0001539  14.2282 345.8936 14.19745800448965
1 43013U 17073A   26196.12535172  .00000006  00000-0  23989-4 0  9990
2 43013  98.7772 135.3404 0001386 124.8227 235.3079 14.19516423448435
1 43016U 17073D   26195.60318523  .00011617  00000-0  30730-3 0  9995
2 43016  97.4584  78.3470 0105407 174.3522 185.8937 15.32992920470669
1 43017U 17073E   26196.11905356  .00004352  00000-0  19110-3 0  9996
2 43017  97.4665  62.7648 0148264 231.7533 127.0280 15.13059975469617
1 43022U 17074A   26196.17035528  .00008422  00000-0  19223-3 0  9991
2 43022  97.4882 306.5450 0005238 100.2894 259.8944 15.43130795478587
1 43023U 17074B   26196.16896458  .00004670  00000-0  14312-3 0  9993
2 43023  97.4885 302.7114 0006447 124.6472 235.5379 15.34284896478294
1 43024U 17074C   26196.21009480  .00003443  00000-0  10708-3 0  9993
2 43024  97.4811 299.7251 0008088 134.0779 226.1130 15.33995965478138
1 43072U 17083C   26195.84332267  .00000128  00000-0  38542-4 0  9990
2 43072  86.3985 310.4404 0002443  98.6620 261.4852 14.34217711448136
1 43073U 17083D   26196.23022463  .00000136  00000-0  41425-4 0  9992
2 43073  86.3992 310.5567 0002258 100.4656 259.6794 14.34217962448133
1 43080U 17084A   26196.21535563  .00002406  00000-0  94250-4 0  9995
2 43080  97.1175 234.7050 0003669 119.4384 240.7222 15.26688995475961
1 43099U 18002A   26196.17559749  .00011916  00000-0  28725-3 0  9992
2 43099  97.3135 280.9869 0046940  81.1942 279.4616 15.40214083472674
1 43111U 18004A   26196.20085089  .00002437  00000-0  11884-3 0  9990
2 43111  97.4776 255.5599 0002775 135.4284 224.7174 15.19271029471589
1 43146U 18006A   26196.20597405  .00004404  00000-0  12915-3 0  9992
2 43146  97.6630 357.8882 0002978 179.1491 180.9758 15.35745690473018
1 43152U 18007A   26196.18596713  .00004749  00000-0  20843-3 0  9999
2 43152  97.3970 202.6759 0001886  93.5162 266.6290 15.22425213471675
1 43159U 18008E   26196.19026786  .00004938  00000-0  14689-3 0  9997
2 43159  97.1763 215.3792 0006740 328.1661  31.9175 15.35164252469290
1 43160U 18008F   26196.21030230  .00003320  00000-0  10320-3 0  9993
2 43160  97.1801 214.6834 0005306 352.5568   7.5596 15.34009973469246
1 43186U 18014G   26195.70752162  .00002523  00000-0  13144-3 0  9997
2 43186  97.5336 100.3276 0006264 287.1743  72.8804 15.16915277462933
